ONEWEB-0601             
1 54665U 22166Z   25365.29090616 -.00000040  00000+0 -12899-3 0  9994
2 54665  87.9224 277.4909 0001915  80.4133 279.7217 13.21827594149521
ONEWEB-0602             
1 54666U 22166AA  25365.25553324  .00000083  00000+0  17005-3 0  9990
2 54666  87.9224 277.5024 0001916  68.7341 291.3997 13.21825057149361
ONEWEB-0603             
1 54667U 22166AB  25365.26128428  .00000092  00000+0  19036-3 0  9991
2 54667  87.9235 277.4417 0001793  76.6035 283.5299 13.21822940149298
ONEWEB-0604             
1 54668U 22166AC  25365.24978068  .00000013  00000+0 -53541-6 0  9999
2 54668  87.9225 277.4626 0001667  73.5062 286.6255 13.21825621149257
ONEWEB-0605             
1 54669U 22166AD  25365.24318899  .00000001  00000+0 -29280-4 0  9998
2 54669  87.9225 277.4911 0001967  93.2174 266.9185 13.21827611149323
ONEWEB-0606             
1 54670U 22166AE  25365.26457316  .00000111  00000+0  23765-3 0  9992
2 54670  87.9224 277.4984 0001447  72.2103 287.9189 13.21828195149387
ONEWEB-0607             
1 54671U 22166AF  25365.23166269  .00000041  00000+0  68549-4 0  9996
2 54671  87.9224 277.4687 0001804  75.1478 284.9855 13.21827923149354
ONEWEB-0608             
1 54672U 22166AG  25365.23825585  .00000050  00000+0  90373-4 0  9990
2 54672  87.9233 277.4565 0002067  86.9224 273.2146 13.21826606149363
ONEWEB-0610             
1 54673U 22166AH  25365.29420390 -.00000064  00000+0 -18692-3 0  9992
2 54673  87.9223 277.4761 0002155  85.7500 274.3881 13.21826680149273
ONEWEB-0611             
1 54674U 22166AJ  25365.28760641  .00000013  00000+0 -62879-6 0  9990
2 54674  87.9226 277.4735 0001539  68.6760 291.4538 13.21824419149267
ONEWEB-0612             
1 54675U 22166AK  25365.30077931 -.00000064  00000+0 -18712-3 0  9998
2 54675  87.9227 277.4504 0001792  77.5555 282.5779 13.21827007149258
ONEWEB-0615             
1 54676U 22166AL  25365.28102018  .00000018  00000+0  11638-4 0  9999
2 54676  87.9227 277.4815 0001681  74.7425 285.3895 13.21828512149269
ONEWEB-0655             
1 54677U 22166AM  25365.25634995  .00000075  00000+0  14903-3 0  9991
2 54677  87.9225 277.4901 0001891  71.0046 289.1293 13.21828077149255
ONEWEB-0659             
1 54678U 22166AN  25365.19710414  .00000071  00000+0  14055-3 0  9990
2 54678  87.9225 277.5021 0001541  74.6415 285.4890 13.21828165149330
ONEWEB-0685             
1 54679U 22166AP  25365.27315204  .00000071  00000+0  14064-3 0  9998
2 54679  87.9226 277.4828 0001845  84.2632 275.8713 13.21836274149237
ONEWEB-0712             
1 54680U 22166AQ  25365.25872812 -.00000022  00000+0 -92003-4 0  9999
2 54680  87.9046 262.2083 0001977  62.1404 297.9927 13.16593282149967
