[{"OBJECT_NAME":"ONEWEB-0601","OBJECT_ID":"2022-166Z","EPOCH":"2025-12-31T06:58:54.292224","MEAN_MOTION":13.21827594,"ECCENTRICITY":0.00019155,"INCLINATION":87.9224,"RA_OF_ASC_NODE":277.4909,"ARG_OF_PERICENTER":80.4133,"MEAN_ANOMALY":279.7217,"EPHEMERIS_TYPE":0,"CLASSIFICATION_TYPE":"U","NORAD_CAT_ID":54665,"ELEMENT_SET_NO":999,"REV_AT_EPOCH":14952,"BSTAR":-0.00012898855,"MEAN_MOTION_DOT":-4.0e-7,"MEAN_MOTION_DDOT":0},{"OBJECT_NAME":"ONEWEB-0602","OBJECT_ID":"2022-166AA","EPOCH":"2025-12-31T06:07:58.071936","MEAN_MOTION":13.21825057,"ECCENTRICITY":0.00019168,"INCLINATION":87.9224,"RA_OF_ASC_NODE":277.5024,"ARG_OF_PERICENTER":68.7341,"MEAN_ANOMALY":291.3997,"EPHEMERIS_TYPE":0,"CLASSIFICATION_TYPE":"U","NORAD_CAT_ID":54666,"ELEMENT_SET_NO":999,"REV_AT_EPOCH":14936,"BSTAR":0.00017005403,"MEAN_MOTION_DOT":8.3e-7,"MEAN_MOTION_DDOT":0},{"OBJECT_NAME":"ONEWEB-0603","OBJECT_ID":"2022-166AB","EPOCH":"2025-12-31T06:16:14.961792","MEAN_MOTION":13.2182294,"ECCENTRICITY":0.00017932,"INCLINATION":87.9235,"RA_OF_ASC_NODE":277.4417,"ARG_OF_PERICENTER":76.6035,"MEAN_ANOMALY":283.5299,"EPHEMERIS_TYPE":0,"CLASSIFICATION_TYPE":"U","NORAD_CAT_ID":54667,"ELEMENT_SET_NO":999,"REV_AT_EPOCH":14929,"BSTAR":0.00019036039,"MEAN_MOTION_DOT":9.2e-7,"MEAN_MOTION_DDOT":0},{"OBJECT_NAME":"ONEWEB-0604","OBJECT_ID":"2022-166AC","EPOCH":"2025-12-31T05:59:41.050752","MEAN_MOTION":13.21825621,"ECCENTRICITY":0.00016673,"INCLINATION":87.9225,"RA_OF_ASC_NODE":277.4626,"ARG_OF_PERICENTER":73.5062,"MEAN_ANOMALY":286.6255,"EPHEMERIS_TYPE":0,"CLASSIFICATION_TYPE":"U","NORAD_CAT_ID":54668,"ELEMENT_SET_NO":999,"REV_AT_EPOCH":14925,"BSTAR":-5.3541e-7,"MEAN_MOTION_DOT":1.3e-7,"MEAN_MOTION_DDOT":0},{"OBJECT_NAME":"ONEWEB-0605","OBJECT_ID":"2022-166AD","EPOCH":"2025-12-31T05:50:11.528736","MEAN_MOTION":13.21827611,"ECCENTRICITY":0.00019675,"INCLINATION":87.9225,"RA_OF_ASC_NODE":277.4911,"ARG_OF_PERICENTER":93.2174,"MEAN_ANOMALY":266.9185,"EPHEMERIS_TYPE":0,"CLASSIFICATION_TYPE":"U","NORAD_CAT_ID":54669,"ELEMENT_SET_NO":999,"REV_AT_EPOCH":14932,"BSTAR":-2.9279712e-5,"MEAN_MOTION_DOT":1.0e-8,"MEAN_MOTION_DDOT":0},{"OBJECT_NAME":"ONEWEB-0606","OBJECT_ID":"2022-166AE","EPOCH":"2025-12-31T06:20:59.121024","MEAN_MOTION":13.21828195,"ECCENTRICITY":0.00014477,"INCLINATION":87.9224,"RA_OF_ASC_NODE":277.4984,"ARG_OF_PERICENTER":72.2103,"MEAN_ANOMALY":287.9189,"EPHEMERIS_TYPE":0,"CLASSIFICATION_TYPE":"U","NORAD_CAT_ID":54670,"ELEMENT_SET_NO":999,"REV_AT_EPOCH":14938,"BSTAR":0.0002376531,"MEAN_MOTION_DOT":1.11e-6,"MEAN_MOTION_DDOT":0},{"OBJECT_NAME":"ONEWEB-0607","OBJECT_ID":"2022-166AF","EPOCH":"2025-12-31T05:33:35.656416","MEAN_MOTION":13.21827923,"ECCENTRICITY":0.00018046,"INCLINATION":87.9224,"RA_OF_ASC_NODE":277.4687,"ARG_OF_PERICENTER":75.1478,"MEAN_ANOMALY":284.9855,"EPHEMERIS_TYPE":0,"CLASSIFICATION_TYPE":"U","NORAD_CAT_ID":54671,"ELEMENT_SET_NO":999,"REV_AT_EPOCH":14935,"BSTAR":6.854882e-5,"MEAN_MOTION_DOT":4.1e-7,"MEAN_MOTION_DDOT":0},{"OBJECT_NAME":"ONEWEB-0608","OBJECT_ID":"2022-166AG","EPOCH":"2025-12-31T05:43:05.305440","MEAN_MOTION":13.21826606,"ECCENTRICITY":0.00020672,"INCLINATION":87.9233,"RA_OF_ASC_NODE":277.4565,"ARG_OF_PERICENTER":86.9224,"MEAN_ANOMALY":273.2146,"EPHEMERIS_TYPE":0,"CLASSIFICATION_TYPE":"U","NORAD_CAT_ID":54672,"ELEMENT_SET_NO":999,"REV_AT_EPOCH":14936,"BSTAR":9.0372859e-5,"MEAN_MOTION_DOT":5.0e-7,"MEAN_MOTION_DDOT":0},{"OBJECT_NAME":"ONEWEB-0610","OBJECT_ID":"2022-166AH","EPOCH":"2025-12-31T07:03:39.216960","MEAN_MOTION":13.2182668,"ECCENTRICITY":0.00021554,"INCLINATION":87.9223,"RA_OF_ASC_NODE":277.4761,"ARG_OF_PERICENTER":85.75,"MEAN_ANOMALY":274.3881,"EPHEMERIS_TYPE":0,"CLASSIFICATION_TYPE":"U","NORAD_CAT_ID":54673,"ELEMENT_SET_NO":999,"REV_AT_EPOCH":14927,"BSTAR":-0.0001869208,"MEAN_MOTION_DOT":-6.4e-7,"MEAN_MOTION_DDOT":0},{"OBJECT_NAME":"ONEWEB-0611","OBJECT_ID":"2022-166AJ","EPOCH":"2025-12-31T06:54:09.193824","MEAN_MOTION":13.21824419,"ECCENTRICITY":0.00015398,"INCLINATION":87.9226,"RA_OF_ASC_NODE":277.4735,"ARG_OF_PERICENTER":68.676,"MEAN_ANOMALY":291.4538,"EPHEMERIS_TYPE":0,"CLASSIFICATION_TYPE":"U","NORAD_CAT_ID":54674,"ELEMENT_SET_NO":999,"REV_AT_EPOCH":14926,"BSTAR":-6.28786e-7,"MEAN_MOTION_DOT":1.3e-7,"MEAN_MOTION_DDOT":0},{"OBJECT_NAME":"ONEWEB-0612","OBJECT_ID":"2022-166AK","EPOCH":"2025-12-31T07:13:07.332384","MEAN_MOTION":13.21827007,"ECCENTRICITY":0.0001792,"INCLINATION":87.9227,"RA_OF_ASC_NODE":277.4504,"ARG_OF_PERICENTER":77.5555,"MEAN_ANOMALY":282.5779,"EPHEMERIS_TYPE":0,"CLASSIFICATION_TYPE":"U","NORAD_CAT_ID":54675,"ELEMENT_SET_NO":999,"REV_AT_EPOCH":14925,"BSTAR":-0.00018712089,"MEAN_MOTION_DOT":-6.4e-7,"MEAN_MOTION_DDOT":0},{"OBJECT_NAME":"ONEWEB-0615","OBJECT_ID":"2022-166AL","EPOCH":"2025-12-31T06:44:40.143552","MEAN_MOTION":13.21828512,"ECCENTRICITY":0.00016813,"INCLINATION":87.9227,"RA_OF_ASC_NODE":277.4815,"ARG_OF_PERICENTER":74.7425,"MEAN_ANOMALY":285.3895,"EPHEMERIS_TYPE":0,"CLASSIFICATION_TYPE":"U","NORAD_CAT_ID":54676,"ELEMENT_SET_NO":999,"REV_AT_EPOCH":14926,"BSTAR":1.1638e-5,"MEAN_MOTION_DOT":1.8e-7,"MEAN_MOTION_DDOT":0},{"OBJECT_NAME":"ONEWEB-0655","OBJECT_ID":"2022-166AM","EPOCH":"2025-12-31T06:09:08.635680","MEAN_MOTION":13.21828077,"ECCENTRICITY":0.00018913,"INCLINATION":87.9225,"RA_OF_ASC_NODE":277.4901,"ARG_OF_PERICENTER":71.0046,"MEAN_ANOMALY":289.1293,"EPHEMERIS_TYPE":0,"CLASSIFICATION_TYPE":"U","NORAD_CAT_ID":54677,"ELEMENT_SET_NO":999,"REV_AT_EPOCH":14925,"BSTAR":0.00014903474,"MEAN_MOTION_DOT":7.5e-7,"MEAN_MOTION_DDOT":0},{"OBJECT_NAME":"ONEWEB-0659","OBJECT_ID":"2022-166AN","EPOCH":"2025-12-31T04:43:49.797696","MEAN_MOTION":13.21828165,"ECCENTRICITY":0.00015412,"INCLINATION":87.9225,"RA_OF_ASC_NODE":277.5021,"ARG_OF_PERICENTER":74.6415,"MEAN_ANOMALY":285.489,"EPHEMERIS_TYPE":0,"CLASSIFICATION_TYPE":"U","NORAD_CAT_ID":54678,"ELEMENT_SET_NO":999,"REV_AT_EPOCH":14933,"BSTAR":0.0001405455,"MEAN_MOTION_DOT":7.1e-7,"MEAN_MOTION_DDOT":0},{"OBJECT_NAME":"ONEWEB-0685","OBJECT_ID":"2022-166AP","EPOCH":"2025-12-31T06:33:20.336256","MEAN_MOTION":13.21836274,"ECCENTRICITY":0.00018456,"INCLINATION":87.9226,"RA_OF_ASC_NODE":277.4828,"ARG_OF_PERICENTER":84.2632,"MEAN_ANOMALY":275.8713,"EPHEMERIS_TYPE":0,"CLASSIFICATION_TYPE":"U","NORAD_CAT_ID":54679,"ELEMENT_SET_NO":999,"REV_AT_EPOCH":14923,"BSTAR":0.00014063983,"MEAN_MOTION_DOT":7.1e-7,"MEAN_MOTION_DDOT":0},{"OBJECT_NAME":"ONEWEB-0712","OBJECT_ID":"2022-166AQ","EPOCH":"2025-12-31T06:12:34.109568","MEAN_MOTION":13.16593282,"ECCENTRICITY":0.00019774,"INCLINATION":87.9046,"RA_OF_ASC_NODE":262.2083,"ARG_OF_PERICENTER":62.1404,"MEAN_ANOMALY":297.9927,"EPHEMERIS_TYPE":0,"CLASSIFICATION_TYPE":"U","NORAD_CAT_ID":54680,"ELEMENT_SET_NO":999,"REV_AT_EPOCH":14996,"BSTAR":-9.2002621e-5,"MEAN_MOTION_DOT":-2.2e-7,"MEAN_MOTION_DDOT":0}]
